{
    "links": {
        "self": "http://www.neowsapp.com/rest/v1/neo/3740012?api_key=iIulBulltgU6a56xZRHN4H3l9WmuAYTsLGpBGhQ2"
    },
    "id": "3740012",
    "neo_reference_id": "3740012",
    "name": "(2016 AS164)",
    "designation": "2016 AS164",
    "nasa_jpl_url": "http://ssd.jpl.nasa.gov/sbdb.cgi?sstr=3740012",
    "absolute_magnitude_h": 24.4,
    "estimated_diameter": {
        "kilometers": {
            "estimated_diameter_min": 0.0350392641,
            "estimated_diameter_max": 0.0783501764
        },
        "meters": {
            "estimated_diameter_min": 35.0392641108,
            "estimated_diameter_max": 78.3501764334
        },
        "miles": {
            "estimated_diameter_min": 0.0217723826,
            "estimated_diameter_max": 0.0486845275
        },
        "feet": {
            "estimated_diameter_min": 114.9582192654,
            "estimated_diameter_max": 257.0543928497
        }
    },
    "is_potentially_hazardous_asteroid": false,
    "close_approach_data": [
        {
            "close_approach_date": "2016-01-11",
            "close_approach_date_full": "2016-Jan-11 15:01",
            "epoch_date_close_approach": 1452524460000,
            "relative_velocity": {
                "kilometers_per_second": "12.2750846841",
                "kilometers_per_hour": "44190.3048626714",
                "miles_per_hour": "27458.1369298083"
            },
            "miss_distance": {
                "astronomical": "0.1497517257",
                "lunar": "58.2534212973",
                "kilometers": "22402539.193544259",
                "miles": "13920292.3623344142"
            },
            "orbiting_body": "Earth"
        }
    ],
    "orbital_data": {
        "orbit_id": "4",
        "orbit_determination_date": "2017-04-06 08:29:12",
        "first_observation_date": "2016-01-13",
        "last_observation_date": "2016-01-30",
        "data_arc_in_days": 17,
        "observations_used": 22,
        "orbit_uncertainty": "8",
        "minimum_orbit_intersection": ".147318",
        "jupiter_tisserand_invariant": "4.507",
        "epoch_osculation": "2457401.5",
        "eccentricity": ".237869774530664",
        "semi_major_axis": "1.461910011762085",
        "inclination": "22.95459676313474",
        "ascending_node_longitude": "114.0293011021612",
        "orbital_period": "645.62358551663",
        "perihelion_distance": "1.114165806880118",
        "perihelion_argument": "335.4300430463845",
        "aphelion_distance": "1.809654216644053",
        "perihelion_time": "2457375.021915187456",
        "mean_anomaly": "14.76419193218943",
        "mean_motion": ".5576004471892502",
        "equinox": "J2000",
        "orbit_class": {
            "orbit_class_type": "AMO",
            "orbit_class_description": "Near-Earth asteroid orbits similar to that of 1221 Amor",
            "orbit_class_range": "1.017 AU < q (perihelion) < 1.3 AU"
        }
    },
    "is_sentry_object": false
}